[{"OBJECT_NAME":"ONEWEB-0050","OBJECT_ID":"2020-020AF","EPOCH":"2026-02-04T07:28:14.359584","MEAN_MOTION":14.89866483,"ECCENTRICITY":0.00058013,"INCLINATION":88.9192,"RA_OF_ASC_NODE":251.3271,"ARG_OF_PERICENTER":90.5692,"MEAN_ANOMALY":269.6202,"EPHEMERIS_TYPE":0,"CLASSIFICATION_TYPE":"U","NORAD_CAT_ID":45453,"ELEMENT_SET_NO":999,"REV_AT_EPOCH":32059,"BSTAR":0.00024526559,"MEAN_MOTION_DOT":2.377e-5,"MEAN_MOTION_DDOT":0},{"OBJECT_NAME":"ONEWEB-0034","OBJECT_ID":"2020-020AG","EPOCH":"2026-02-04T01:32:02.764032","MEAN_MOTION":13.11419659,"ECCENTRICITY":0.00018617,"INCLINATION":87.8824,"RA_OF_ASC_NODE":47.5447,"ARG_OF_PERICENTER":90.8691,"MEAN_ANOMALY":269.265,"EPHEMERIS_TYPE":0,"CLASSIFICATION_TYPE":"U","NORAD_CAT_ID":45454,"ELEMENT_SET_NO":999,"REV_AT_EPOCH":28514,"BSTAR":-0.0010822677,"MEAN_MOTION_DOT":-3.71e-6,"MEAN_MOTION_DDOT":0},{"OBJECT_NAME":"ONEWEB-0060","OBJECT_ID":"2020-020AH","EPOCH":"2026-02-04T06:20:09.777984","MEAN_MOTION":13.11415405,"ECCENTRICITY":0.00011438,"INCLINATION":87.8811,"RA_OF_ASC_NODE":47.5179,"ARG_OF_PERICENTER":59.3327,"MEAN_ANOMALY":300.7914,"EPHEMERIS_TYPE":0,"CLASSIFICATION_TYPE":"U","NORAD_CAT_ID":45455,"ELEMENT_SET_NO":999,"REV_AT_EPOCH":28512,"BSTAR":0.0005089888,"MEAN_MOTION_DOT":1.93e-6,"MEAN_MOTION_DDOT":0},{"OBJECT_NAME":"ONEWEB-0086","OBJECT_ID":"2020-020AJ","EPOCH":"2026-02-03T18:50:26.712096","MEAN_MOTION":13.1141737,"ECCENTRICITY":0.00010917,"INCLINATION":87.8825,"RA_OF_ASC_NODE":47.5981,"ARG_OF_PERICENTER":97.754,"MEAN_ANOMALY":262.3712,"EPHEMERIS_TYPE":0,"CLASSIFICATION_TYPE":"U","NORAD_CAT_ID":45456,"ELEMENT_SET_NO":999,"REV_AT_EPOCH":28512,"BSTAR":0.0016805508,"MEAN_MOTION_DOT":6.08e-6,"MEAN_MOTION_DDOT":0},{"OBJECT_NAME":"ONEWEB-0088","OBJECT_ID":"2020-020AK","EPOCH":"2026-02-04T07:07:45.767136","MEAN_MOTION":13.11418004,"ECCENTRICITY":0.00020299,"INCLINATION":87.8836,"RA_OF_ASC_NODE":47.457,"ARG_OF_PERICENTER":84.0404,"MEAN_ANOMALY":276.0955,"EPHEMERIS_TYPE":0,"CLASSIFICATION_TYPE":"U","NORAD_CAT_ID":45457,"ELEMENT_SET_NO":999,"REV_AT_EPOCH":28512,"BSTAR":-0.0010178442,"MEAN_MOTION_DOT":-3.48e-6,"MEAN_MOTION_DDOT":0},{"OBJECT_NAME":"ONEWEB-0102","OBJECT_ID":"2020-100A","EPOCH":"2026-02-03T11:45:54.711648","MEAN_MOTION":13.12442157,"ECCENTRICITY":0.00015724,"INCLINATION":87.8945,"RA_OF_ASC_NODE":17.2211,"ARG_OF_PERICENTER":87.1824,"MEAN_ANOMALY":272.9484,"EPHEMERIS_TYPE":0,"CLASSIFICATION_TYPE":"U","NORAD_CAT_ID":47258,"ELEMENT_SET_NO":999,"REV_AT_EPOCH":24719,"BSTAR":0.00033830246,"MEAN_MOTION_DOT":1.34e-6,"MEAN_MOTION_DDOT":0},{"OBJECT_NAME":"ONEWEB-0109","OBJECT_ID":"2020-100B","EPOCH":"2026-02-04T04:26:08.152512","MEAN_MOTION":13.12441738,"ECCENTRICITY":0.00017912,"INCLINATION":87.8951,"RA_OF_ASC_NODE":17.0548,"ARG_OF_PERICENTER":89.8535,"MEAN_ANOMALY":270.2799,"EPHEMERIS_TYPE":0,"CLASSIFICATION_TYPE":"U","NORAD_CAT_ID":47259,"ELEMENT_SET_NO":999,"REV_AT_EPOCH":24711,"BSTAR":-0.000260129,"MEAN_MOTION_DOT":-8.1e-7,"MEAN_MOTION_DDOT":0},{"OBJECT_NAME":"ONEWEB-0110","OBJECT_ID":"2020-100C","EPOCH":"2026-02-03T21:46:02.920800","MEAN_MOTION":13.12444286,"ECCENTRICITY":0.00015524,"INCLINATION":87.8936,"RA_OF_ASC_NODE":17.0927,"ARG_OF_PERICENTER":85.4706,"MEAN_ANOMALY":274.66,"EPHEMERIS_TYPE":0,"CLASSIFICATION_TYPE":"U","NORAD_CAT_ID":47260,"ELEMENT_SET_NO":999,"REV_AT_EPOCH":24724,"BSTAR":-0.0013069624,"MEAN_MOTION_DOT":-4.57e-6,"MEAN_MOTION_DDOT":0},{"OBJECT_NAME":"ONEWEB-0111","OBJECT_ID":"2020-100D","EPOCH":"2026-02-03T22:29:56.887872","MEAN_MOTION":13.12441828,"ECCENTRICITY":0.00017594,"INCLINATION":87.8952,"RA_OF_ASC_NODE":17.1071,"ARG_OF_PERICENTER":80.9416,"MEAN_ANOMALY":279.1912,"EPHEMERIS_TYPE":0,"CLASSIFICATION_TYPE":"U","NORAD_CAT_ID":47261,"ELEMENT_SET_NO":999,"REV_AT_EPOCH":24708,"BSTAR":0.0011204733,"MEAN_MOTION_DOT":4.16e-6,"MEAN_MOTION_DDOT":0},{"OBJECT_NAME":"ONEWEB-0114","OBJECT_ID":"2020-100E","EPOCH":"2026-02-03T15:54:45.541440","MEAN_MOTION":13.12447572,"ECCENTRICITY":0.00020292,"INCLINATION":87.895,"RA_OF_ASC_NODE":17.1571,"ARG_OF_PERICENTER":91.2544,"MEAN_ANOMALY":268.8817,"EPHEMERIS_TYPE":0,"CLASSIFICATION_TYPE":"U","NORAD_CAT_ID":47262,"ELEMENT_SET_NO":999,"REV_AT_EPOCH":24700,"BSTAR":-0.0029138949,"MEAN_MOTION_DOT":-1.036e-5,"MEAN_MOTION_DDOT":0},{"OBJECT_NAME":"ONEWEB-0117","OBJECT_ID":"2020-100F","EPOCH":"2026-02-03T12:02:58.959456","MEAN_MOTION":13.12442361,"ECCENTRICITY":0.00017864,"INCLINATION":87.8948,"RA_OF_ASC_NODE":17.1843,"ARG_OF_PERICENTER":85.6266,"MEAN_ANOMALY":274.5066,"EPHEMERIS_TYPE":0,"CLASSIFICATION_TYPE":"U","NORAD_CAT_ID":47263,"ELEMENT_SET_NO":999,"REV_AT_EPOCH":24699,"BSTAR":-0.00081297457,"MEAN_MOTION_DOT":-2.8e-6,"MEAN_MOTION_DDOT":0},{"OBJECT_NAME":"ONEWEB-0118","OBJECT_ID":"2020-100G","EPOCH":"2026-02-03T22:00:40.985856","MEAN_MOTION":13.12445719,"ECCENTRICITY":0.00021536,"INCLINATION":87.8951,"RA_OF_ASC_NODE":17.1031,"ARG_OF_PERICENTER":87.3633,"MEAN_ANOMALY":272.7742,"EPHEMERIS_TYPE":0,"CLASSIFICATION_TYPE":"U","NORAD_CAT_ID":47264,"ELEMENT_SET_NO":999,"REV_AT_EPOCH":24724,"BSTAR":0.00035565317,"MEAN_MOTION_DOT":1.41e-6,"MEAN_MOTION_DDOT":0},{"OBJECT_NAME":"ONEWEB-0119","OBJECT_ID":"2020-100H","EPOCH":"2026-02-04T04:06:37.645056","MEAN_MOTION":13.12442411,"ECCENTRICITY":0.00018242,"INCLINATION":87.8946,"RA_OF_ASC_NODE":17.0816,"ARG_OF_PERICENTER":85.8809,"MEAN_ANOMALY":274.2528,"EPHEMERIS_TYPE":0,"CLASSIFICATION_TYPE":"U","NORAD_CAT_ID":47265,"ELEMENT_SET_NO":999,"REV_AT_EPOCH":24725,"BSTAR":0.0011875171,"MEAN_MOTION_DOT":4.4e-6,"MEAN_MOTION_DDOT":0},{"OBJECT_NAME":"ONEWEB-0120","OBJECT_ID":"2020-100J","EPOCH":"2026-02-03T15:52:29.983296","MEAN_MOTION":13.12442908,"ECCENTRICITY":0.00018697,"INCLINATION":87.894,"RA_OF_ASC_NODE":17.1842,"ARG_OF_PERICENTER":88.4122,"MEAN_ANOMALY":271.7221,"EPHEMERIS_TYPE":0,"CLASSIFICATION_TYPE":"U","NORAD_CAT_ID":47266,"ELEMENT_SET_NO":999,"REV_AT_EPOCH":24721,"BSTAR":-0.0010497784,"MEAN_MOTION_DOT":-3.65e-6,"MEAN_MOTION_DDOT":0},{"OBJECT_NAME":"ONEWEB-0121","OBJECT_ID":"2020-100K","EPOCH":"2026-02-04T04:23:42.001728","MEAN_MOTION":13.12442032,"ECCENTRICITY":0.00016299,"INCLINATION":87.8955,"RA_OF_ASC_NODE":17.0533,"ARG_OF_PERICENTER":82.4894,"MEAN_ANOMALY":277.642,"EPHEMERIS_TYPE":0,"CLASSIFICATION_TYPE":"U","NORAD_CAT_ID":47267,"ELEMENT_SET_NO":999,"REV_AT_EPOCH":24719,"BSTAR":6.7556757e-5,"MEAN_MOTION_DOT":3.7e-7,"MEAN_MOTION_DDOT":0},{"OBJECT_NAME":"ONEWEB-0122","OBJECT_ID":"2020-100L","EPOCH":"2026-02-04T04:15:09.639360","MEAN_MOTION":13.12441028,"ECCENTRICITY":0.00016933,"INCLINATION":87.8953,"RA_OF_ASC_NODE":17.0564,"ARG_OF_PERICENTER":88.5004,"MEAN_ANOMALY":271.6319,"EPHEMERIS_TYPE":0,"CLASSIFICATION_TYPE":"U","NORAD_CAT_ID":47268,"ELEMENT_SET_NO":999,"REV_AT_EPOCH":24710,"BSTAR":0.0004632335,"MEAN_MOTION_DOT":1.79e-6,"MEAN_MOTION_DDOT":0},{"OBJECT_NAME":"ONEWEB-0123","OBJECT_ID":"2020-100M","EPOCH":"2026-02-03T20:49:56.378496","MEAN_MOTION":13.12441875,"ECCENTRICITY":0.00019132,"INCLINATION":87.8945,"RA_OF_ASC_NODE":17.1405,"ARG_OF_PERICENTER":83.4901,"MEAN_ANOMALY":276.6446,"EPHEMERIS_TYPE":0,"CLASSIFICATION_TYPE":"U","NORAD_CAT_ID":47269,"ELEMENT_SET_NO":999,"REV_AT_EPOCH":24720,"BSTAR":0.00078605002,"MEAN_MOTION_DOT":2.96e-6,"MEAN_MOTION_DDOT":0}]
