ONEWEB-0050             
1 45453U 20020AF  26035.31127731  .00002377  00000+0  24527-3 0  9997
2 45453  88.9192 251.3271 0005801  90.5692 269.6202 14.89866483320599
ONEWEB-0034             
1 45454U 20020AG  26035.06392088 -.00000371  00000+0 -10823-2 0  9996
2 45454  87.8824  47.5447 0001861  90.8691 269.2650 13.11419659285141
ONEWEB-0060             
1 45455U 20020AH  26035.26400206  .00000193  00000+0  50899-3 0  9999
2 45455  87.8811  47.5179 0001143  59.3327 300.7914 13.11415405285126
ONEWEB-0086             
1 45456U 20020AJ  26034.78503139  .00000608  00000+0  16806-2 0  9995
2 45456  87.8825  47.5981 0001091  97.7540 262.3712 13.11417370285120
ONEWEB-0088             
1 45457U 20020AK  26035.29705749 -.00000348  00000+0 -10178-2 0  9993
2 45457  87.8836  47.4570 0002029  84.0404 276.0955 13.11418004285122
ONEWEB-0102             
1 47258U 20100A   26034.49021657  .00000134  00000+0  33830-3 0  9995
2 47258  87.8945  17.2211 0001572  87.1824 272.9484 13.12442157247197
ONEWEB-0109             
1 47259U 20100B   26035.18481658 -.00000081  00000+0 -26013-3 0  9992
2 47259  87.8951  17.0548 0001791  89.8535 270.2799 13.12441738247113
ONEWEB-0110             
1 47260U 20100C   26034.90697825 -.00000457  00000+0 -13070-2 0  9993
2 47260  87.8936  17.0927 0001552  85.4706 274.6600 13.12444286247240
ONEWEB-0111             
1 47261U 20100D   26034.93746398  .00000416  00000+0  11205-2 0  9998
2 47261  87.8952  17.1071 0001759  80.9416 279.1912 13.12441828247084
ONEWEB-0114             
1 47262U 20100E   26034.66302710 -.00001036  00000+0 -29139-2 0  9991
2 47262  87.8950  17.1571 0002029  91.2544 268.8817 13.12447572247009
ONEWEB-0117             
1 47263U 20100F   26034.50207129 -.00000280  00000+0 -81297-3 0  9997
2 47263  87.8948  17.1843 0001786  85.6266 274.5066 13.12442361246994
ONEWEB-0118             
1 47264U 20100G   26034.91714104  .00000141  00000+0  35565-3 0  9990
2 47264  87.8951  17.1031 0002153  87.3633 272.7742 13.12445719247244
ONEWEB-0119             
1 47265U 20100H   26035.17126904  .00000440  00000+0  11875-2 0  9994
2 47265  87.8946  17.0816 0001824  85.8809 274.2528 13.12442411247257
ONEWEB-0120             
1 47266U 20100J   26034.66145814 -.00000365  00000+0 -10498-2 0  9997
2 47266  87.8940  17.1842 0001869  88.4122 271.7221 13.12442908247217
ONEWEB-0121             
1 47267U 20100K   26035.18312502  .00000037  00000+0  67557-4 0  9990
2 47267  87.8955  17.0533 0001629  82.4894 277.6420 13.12442032247195
ONEWEB-0122             
1 47268U 20100L   26035.17719490  .00000179  00000+0  46323-3 0  9991
2 47268  87.8953  17.0564 0001693  88.5004 271.6319 13.12441028247105
ONEWEB-0123             
1 47269U 20100M   26034.86801364  .00000296  00000+0  78605-3 0  9997
2 47269  87.8945  17.1405 0001913  83.4901 276.6446 13.12441875247204
